CCSDS_OMM_VERS = 2.0
CREATION_DATE  = 
ORIGINATOR     = 

OBJECT_NAME    = STARLINK-36581
OBJECT_ID      = 2026-014M
CENTER_NAME    = EARTH
REF_FRAME      = TEME
TIME_SYSTEM    = UTC
MEAN_ELEMENT_THEORY = SGP/SGP4

EPOCH          = 2026-02-02T12:00:01.999296
MEAN_MOTION    = 15.86400673
ECCENTRICITY   = .0001609
INCLINATION    = 97.2807
RA_OF_ASC_NODE = 276.6088
ARG_OF_PERICENTER = 80.1592
MEAN_ANOMALY   = 80.0344

EPHEMERIS_TYPE = 0
CLASSIFICATION_TYPE = U
NORAD_CAT_ID   = 67543
ELEMENT_SET_NO = 999
REV_AT_EPOCH   = 303
BSTAR          = -.66165E-2
MEAN_MOTION_DOT = -.1435911E-1
MEAN_MOTION_DDOT = 0

CCSDS_OMM_VERS = 2.0
CREATION_DATE  = 
ORIGINATOR     = 

OBJECT_NAME    = STARLINK-36565
OBJECT_ID      = 2026-014N
CENTER_NAME    = EARTH
REF_FRAME      = TEME
TIME_SYSTEM    = UTC
MEAN_ELEMENT_THEORY = SGP/SGP4

EPOCH          = 2026-02-02T12:00:01.999296
MEAN_MOTION    = 15.86579280
ECCENTRICITY   = .0001557
INCLINATION    = 97.2799
RA_OF_ASC_NODE = 276.6102
ARG_OF_PERICENTER = 77.9988
MEAN_ANOMALY   = 87.0479

EPHEMERIS_TYPE = 0
CLASSIFICATION_TYPE = U
NORAD_CAT_ID   = 67544
ELEMENT_SET_NO = 999
REV_AT_EPOCH   = 303
BSTAR          = -.65527E-2
MEAN_MOTION_DOT = -.143472E-1
MEAN_MOTION_DDOT = 0

CCSDS_OMM_VERS = 2.0
CREATION_DATE  = 
ORIGINATOR     = 

OBJECT_NAME    = STARLINK-36583
OBJECT_ID      = 2026-014P
CENTER_NAME    = EARTH
REF_FRAME      = TEME
TIME_SYSTEM    = UTC
MEAN_ELEMENT_THEORY = SGP/SGP4

EPOCH          = 2026-02-02T12:00:01.999296
MEAN_MOTION    = 15.86759222
ECCENTRICITY   = .0001571
INCLINATION    = 97.2797
RA_OF_ASC_NODE = 276.6121
ARG_OF_PERICENTER = 80.5212
MEAN_ANOMALY   = 89.3733

EPHEMERIS_TYPE = 0
CLASSIFICATION_TYPE = U
NORAD_CAT_ID   = 67545
ELEMENT_SET_NO = 999
REV_AT_EPOCH   = 303
BSTAR          = -.64672E-2
MEAN_MOTION_DOT = -.1429407E-1
MEAN_MOTION_DDOT = 0

CCSDS_OMM_VERS = 2.0
CREATION_DATE  = 
ORIGINATOR     = 

OBJECT_NAME    = STARLINK-36580
OBJECT_ID      = 2026-014Q
CENTER_NAME    = EARTH
REF_FRAME      = TEME
TIME_SYSTEM    = UTC
MEAN_ELEMENT_THEORY = SGP/SGP4

EPOCH          = 2026-02-02T12:00:01.999296
MEAN_MOTION    = 15.86990967
ECCENTRICITY   = .0001622
INCLINATION    = 97.2793
RA_OF_ASC_NODE = 276.6143
ARG_OF_PERICENTER = 82.3698
MEAN_ANOMALY   = 93.6801

EPHEMERIS_TYPE = 0
CLASSIFICATION_TYPE = U
NORAD_CAT_ID   = 67546
ELEMENT_SET_NO = 999
REV_AT_EPOCH   = 303
BSTAR          = -.63524E-2
MEAN_MOTION_DOT = -.1421422E-1
MEAN_MOTION_DDOT = 0

CCSDS_OMM_VERS = 2.0
CREATION_DATE  = 
ORIGINATOR     = 

OBJECT_NAME    = STARLINK-36584
OBJECT_ID      = 2026-014R
CENTER_NAME    = EARTH
REF_FRAME      = TEME
TIME_SYSTEM    = UTC
MEAN_ELEMENT_THEORY = SGP/SGP4

EPOCH          = 2026-02-02T12:00:01.999296
MEAN_MOTION    = 15.87151059
ECCENTRICITY   = .0001544
INCLINATION    = 97.2790
RA_OF_ASC_NODE = 276.6160
ARG_OF_PERICENTER = 82.9533
MEAN_ANOMALY   = 97.4362

EPHEMERIS_TYPE = 0
CLASSIFICATION_TYPE = U
NORAD_CAT_ID   = 67547
ELEMENT_SET_NO = 999
REV_AT_EPOCH   = 303
BSTAR          = -.62943E-2
MEAN_MOTION_DOT = -.1419769E-1
MEAN_MOTION_DDOT = 0

CCSDS_OMM_VERS = 2.0
CREATION_DATE  = 
ORIGINATOR     = 

OBJECT_NAME    = STARLINK-36586
OBJECT_ID      = 2026-014S
CENTER_NAME    = EARTH
REF_FRAME      = TEME
TIME_SYSTEM    = UTC
MEAN_ELEMENT_THEORY = SGP/SGP4

EPOCH          = 2026-02-02T12:00:01.999296
MEAN_MOTION    = 15.87380021
ECCENTRICITY   = .0001522
INCLINATION    = 97.2796
RA_OF_ASC_NODE = 276.6193
ARG_OF_PERICENTER = 79.3768
MEAN_ANOMALY   = 107.0722

EPHEMERIS_TYPE = 0
CLASSIFICATION_TYPE = U
NORAD_CAT_ID   = 67548
ELEMENT_SET_NO = 999
REV_AT_EPOCH   = 303
BSTAR          = -.61971E-2
MEAN_MOTION_DOT = -.1414548E-1
MEAN_MOTION_DDOT = 0

CCSDS_OMM_VERS = 2.0
CREATION_DATE  = 
ORIGINATOR     = 

OBJECT_NAME    = STARLINK-36564
OBJECT_ID      = 2026-014T
CENTER_NAME    = EARTH
REF_FRAME      = TEME
TIME_SYSTEM    = UTC
MEAN_ELEMENT_THEORY = SGP/SGP4

EPOCH          = 2026-02-02T12:00:01.999296
MEAN_MOTION    = 15.87584629
ECCENTRICITY   = .0001583
INCLINATION    = 97.2797
RA_OF_ASC_NODE = 276.6217
ARG_OF_PERICENTER = 78.4540
MEAN_ANOMALY   = 113.2406

EPHEMERIS_TYPE = 0
CLASSIFICATION_TYPE = U
NORAD_CAT_ID   = 67549
ELEMENT_SET_NO = 999
REV_AT_EPOCH   = 297
BSTAR          = -.61615E-2
MEAN_MOTION_DOT = -.1420023E-1
MEAN_MOTION_DDOT = 0

CCSDS_OMM_VERS = 2.0
CREATION_DATE  = 
ORIGINATOR     = 

OBJECT_NAME    = STARLINK-36563
OBJECT_ID      = 2026-014U
CENTER_NAME    = EARTH
REF_FRAME      = TEME
TIME_SYSTEM    = UTC
MEAN_ELEMENT_THEORY = SGP/SGP4

EPOCH          = 2026-02-02T12:00:01.999296
MEAN_MOTION    = 15.87774231
ECCENTRICITY   = .0001533
INCLINATION    = 97.2786
RA_OF_ASC_NODE = 276.6230
ARG_OF_PERICENTER = 77.0798
MEAN_ANOMALY   = 119.8053

EPHEMERIS_TYPE = 0
CLASSIFICATION_TYPE = U
NORAD_CAT_ID   = 67550
ELEMENT_SET_NO = 999
REV_AT_EPOCH   = 303
BSTAR          = -.60411E-2
MEAN_MOTION_DOT = -.1407273E-1
MEAN_MOTION_DDOT = 0

CCSDS_OMM_VERS = 2.0
CREATION_DATE  = 
ORIGINATOR     = 

OBJECT_NAME    = STARLINK-36566
OBJECT_ID      = 2026-014V
CENTER_NAME    = EARTH
REF_FRAME      = TEME
TIME_SYSTEM    = UTC
MEAN_ELEMENT_THEORY = SGP/SGP4

EPOCH          = 2026-02-02T12:00:01.999296
MEAN_MOTION    = 15.87959278
ECCENTRICITY   = .0001593
INCLINATION    = 97.2779
RA_OF_ASC_NODE = 276.6248
ARG_OF_PERICENTER = 78.9516
MEAN_ANOMALY   = 122.6521

EPHEMERIS_TYPE = 0
CLASSIFICATION_TYPE = U
NORAD_CAT_ID   = 67551
ELEMENT_SET_NO = 999
REV_AT_EPOCH   = 303
BSTAR          = -.60126E-2
MEAN_MOTION_DOT = -.141285E-1
MEAN_MOTION_DDOT = 0

CCSDS_OMM_VERS = 2.0
CREATION_DATE  = 
ORIGINATOR     = 

OBJECT_NAME    = STARLINK-36567
OBJECT_ID      = 2026-014W
CENTER_NAME    = EARTH
REF_FRAME      = TEME
TIME_SYSTEM    = UTC
MEAN_ELEMENT_THEORY = SGP/SGP4

EPOCH          = 2026-02-02T12:00:01.999296
MEAN_MOTION    = 15.88139502
ECCENTRICITY   = .0001535
INCLINATION    = 97.2777
RA_OF_ASC_NODE = 276.6266
ARG_OF_PERICENTER = 87.3187
MEAN_ANOMALY   = 119.0482

EPHEMERIS_TYPE = 0
CLASSIFICATION_TYPE = U
NORAD_CAT_ID   = 67552
ELEMENT_SET_NO = 999
REV_AT_EPOCH   = 303
BSTAR          = -.59613E-2
MEAN_MOTION_DOT = -.1413323E-1
MEAN_MOTION_DDOT = 0

CCSDS_OMM_VERS = 2.0
CREATION_DATE  = 
ORIGINATOR     = 

OBJECT_NAME    = STARLINK-36569
OBJECT_ID      = 2026-014X
CENTER_NAME    = EARTH
REF_FRAME      = TEME
TIME_SYSTEM    = UTC
MEAN_ELEMENT_THEORY = SGP/SGP4

EPOCH          = 2026-02-02T12:00:01.999296
MEAN_MOTION    = 15.88378652
ECCENTRICITY   = .0001551
INCLINATION    = 97.2775
RA_OF_ASC_NODE = 276.6294
ARG_OF_PERICENTER = 78.7516
MEAN_ANOMALY   = 133.8331

EPHEMERIS_TYPE = 0
CLASSIFICATION_TYPE = U
NORAD_CAT_ID   = 67553
ELEMENT_SET_NO = 999
REV_AT_EPOCH   = 303
BSTAR          = -.58647E-2
MEAN_MOTION_DOT = -.1407959E-1
MEAN_MOTION_DDOT = 0

CCSDS_OMM_VERS = 2.0
CREATION_DATE  = 
ORIGINATOR     = 

OBJECT_NAME    = STARLINK-36395
OBJECT_ID      = 2026-014Y
CENTER_NAME    = EARTH
REF_FRAME      = TEME
TIME_SYSTEM    = UTC
MEAN_ELEMENT_THEORY = SGP/SGP4

EPOCH          = 2026-02-02T12:00:01.999296
MEAN_MOTION    = 15.89005975
ECCENTRICITY   = .0001432
INCLINATION    = 97.2767
RA_OF_ASC_NODE = 276.6369
ARG_OF_PERICENTER = 84.2898
MEAN_ANOMALY   = 144.7645

EPHEMERIS_TYPE = 0
CLASSIFICATION_TYPE = U
NORAD_CAT_ID   = 67554
ELEMENT_SET_NO = 999
REV_AT_EPOCH   = 303
BSTAR          = -.56199E-2
MEAN_MOTION_DOT = -.139428E-1
MEAN_MOTION_DDOT = 0

