STARLINK-36581          
1 67543U 26014M   26033.50002314 -.01435911  00000+0 -66165-2 0  9998
2 67543  97.2807 276.6088 0001609  80.1592  80.0344 15.86400673  3033
STARLINK-36565          
1 67544U 26014N   26033.50002314 -.01434720  00000+0 -65527-2 0  9997
2 67544  97.2799 276.6102 0001557  77.9988  87.0479 15.86579280  3033
STARLINK-36583          
1 67545U 26014P   26033.50002314 -.01429407  00000+0 -64672-2 0  9994
2 67545  97.2797 276.6121 0001571  80.5212  89.3733 15.86759222  3033
STARLINK-36580          
1 67546U 26014Q   26033.50002314 -.01421422  00000+0 -63524-2 0  9999
2 67546  97.2793 276.6143 0001622  82.3698  93.6801 15.86990967  3036
STARLINK-36584          
1 67547U 26014R   26033.50002314 -.01419769  00000+0 -62943-2 0  9995
2 67547  97.2790 276.6160 0001544  82.9533  97.4362 15.87151059  3036
STARLINK-36586          
1 67548U 26014S   26033.50002314 -.01414548  00000+0 -61971-2 0  9996
2 67548  97.2796 276.6193 0001522  79.3768 107.0722 15.87380021  3036
STARLINK-36564          
1 67549U 26014T   26033.50002314 -.01420023  00000+0 -61615-2 0  9997
2 67549  97.2797 276.6217 0001583  78.4540 113.2406 15.87584629  2970
STARLINK-36563          
1 67550U 26014U   26033.50002314 -.01407273  00000+0 -60411-2 0  9994
2 67550  97.2786 276.6230 0001533  77.0798 119.8053 15.87774231  3038
STARLINK-36566          
1 67551U 26014V   26033.50002314 -.01412850  00000+0 -60126-2 0  9995
2 67551  97.2779 276.6248 0001593  78.9516 122.6521 15.87959278  3032
STARLINK-36567          
1 67552U 26014W   26033.50002314 -.01413323  00000+0 -59613-2 0  9991
2 67552  97.2777 276.6266 0001535  87.3187 119.0482 15.88139502  3032
STARLINK-36569          
1 67553U 26014X   26033.50002314 -.01407959  00000+0 -58647-2 0  9996
2 67553  97.2775 276.6294 0001551  78.7516 133.8331 15.88378652  3038
STARLINK-36395          
1 67554U 26014Y   26033.50002314 -.01394280  00000+0 -56199-2 0  9999
2 67554  97.2767 276.6369 0001432  84.2898 144.7645 15.89005975  3031
